[
    {
        "OBJECT_NAME": "STARLINK-2340",
        "OBJECT_ID": "2021-021Y",
        "EPOCH": "2025-12-07T00:00:02.000160",
        "MEAN_MOTION": 15.98337156,
        "ECCENTRICITY": 0.00076325,
        "INCLINATION": 53.0239,
        "RA_OF_ASC_NODE": 227.5103,
        "ARG_OF_PERICENTER": 176.7442,
        "MEAN_ANOMALY": 49.6508,
        "EPHEMERIS_TYPE": 0,
        "CLASSIFICATION_TYPE": "U",
        "NORAD_CAT_ID": 47882,
        "ELEMENT_SET_NO": 999,
        "REV_AT_EPOCH": 590,
        "BSTAR": 0.001972381,
        "MEAN_MOTION_DOT": 0.0093845,
        "MEAN_MOTION_DDOT": 0.00042327063
    },
    {
        "OBJECT_NAME": "STARLINK-2368",
        "OBJECT_ID": "2021-021BA",
        "EPOCH": "2025-12-07T00:00:02.000160",
        "MEAN_MOTION": 15.93804961,
        "ECCENTRICITY": 0.00096252,
        "INCLINATION": 53.0455,
        "RA_OF_ASC_NODE": 311.1407,
        "ARG_OF_PERICENTER": 81.7252,
        "MEAN_ANOMALY": 256.8601,
        "EPHEMERIS_TYPE": 0,
        "CLASSIFICATION_TYPE": "U",
        "NORAD_CAT_ID": 47908,
        "ELEMENT_SET_NO": 999,
        "REV_AT_EPOCH": 598,
        "BSTAR": 0.0014703042,
        "MEAN_MOTION_DOT": 0.00548024,
        "MEAN_MOTION_DDOT": 0.00013184938
    },
    {
        "OBJECT_NAME": "TUBIN",
        "OBJECT_ID": "2021-059X",
        "EPOCH": "2025-12-06T16:42:28.852128",
        "MEAN_MOTION": 16.0676196,
        "ECCENTRICITY": 0.00036999,
        "INCLINATION": 97.669,
        "RA_OF_ASC_NODE": 168.201,
        "ARG_OF_PERICENTER": 277.4909,
        "MEAN_ANOMALY": 82.5952,
        "EPHEMERIS_TYPE": 0,
        "CLASSIFICATION_TYPE": "U",
        "NORAD_CAT_ID": 48900,
        "ELEMENT_SET_NO": 999,
        "REV_AT_EPOCH": 24835,
        "BSTAR": 0.0011149001,
        "MEAN_MOTION_DOT": 0.00838377,
        "MEAN_MOTION_DDOT": 0.00037434826
    },
    {
        "OBJECT_NAME": "ARTHUR-1",
        "OBJECT_ID": "2021-059CC",
        "EPOCH": "2025-12-06T21:53:39.940512",
        "MEAN_MOTION": 15.93741869,
        "ECCENTRICITY": 0.0002449,
        "INCLINATION": 97.656,
        "RA_OF_ASC_NODE": 172.4672,
        "ARG_OF_PERICENTER": 275.3688,
        "MEAN_ANOMALY": 84.7306,
        "EPHEMERIS_TYPE": 0,
        "CLASSIFICATION_TYPE": "U",
        "NORAD_CAT_ID": 48953,
        "ELEMENT_SET_NO": 999,
        "REV_AT_EPOCH": 24868,
        "BSTAR": 0.00083589182,
        "MEAN_MOTION_DOT": 0.00300548,
        "MEAN_MOTION_DDOT": 3.6932906e-05
    },
    {
        "OBJECT_NAME": "STARLINK-3663",
        "OBJECT_ID": "2022-025W",
        "EPOCH": "2025-12-06T12:47:25.068192",
        "MEAN_MOTION": 16.0488251,
        "ECCENTRICITY": 0.00048812,
        "INCLINATION": 53.2006,
        "RA_OF_ASC_NODE": 355.5506,
        "ARG_OF_PERICENTER": 34.277,
        "MEAN_ANOMALY": 325.8578,
        "EPHEMERIS_TYPE": 0,
        "CLASSIFICATION_TYPE": "U",
        "NORAD_CAT_ID": 51976,
        "ELEMENT_SET_NO": 999,
        "REV_AT_EPOCH": 20843,
        "BSTAR": 0.00098244083,
        "MEAN_MOTION_DOT": 0.00685182,
        "MEAN_MOTION_DDOT": 0.00024040106
    },
    {
        "OBJECT_NAME": "STARLINK-3722",
        "OBJECT_ID": "2022-029B",
        "EPOCH": "2025-12-06T22:35:40.511904",
        "MEAN_MOTION": 16.11696323,
        "ECCENTRICITY": 0.0004165,
        "INCLINATION": 53.2108,
        "RA_OF_ASC_NODE": 114.7194,
        "ARG_OF_PERICENTER": 194.2341,
        "MEAN_ANOMALY": 165.8579,
        "EPHEMERIS_TYPE": 0,
        "CLASSIFICATION_TYPE": "U",
        "NORAD_CAT_ID": 52089,
        "ELEMENT_SET_NO": 999,
        "REV_AT_EPOCH": 20708,
        "BSTAR": 0.00085816,
        "MEAN_MOTION_DOT": 0.00923402,
        "MEAN_MOTION_DDOT": 0.00051485
    },
    {
        "OBJECT_NAME": "NUSAT-25 (MARIA TELKES)",
        "OBJECT_ID": "2022-033Q",
        "EPOCH": "2025-12-06T22:15:01.873728",
        "MEAN_MOTION": 15.96731673,
        "ECCENTRICITY": 0.00044589,
        "INCLINATION": 97.2346,
        "RA_OF_ASC_NODE": 68.9535,
        "ARG_OF_PERICENTER": 287.6993,
        "MEAN_ANOMALY": 72.3796,
        "EPHEMERIS_TYPE": 0,
        "CLASSIFICATION_TYPE": "U",
        "NORAD_CAT_ID": 52171,
        "ELEMENT_SET_NO": 999,
        "REV_AT_EPOCH": 20656,
        "BSTAR": 0.001461899,
        "MEAN_MOTION_DOT": 0.00616654,
        "MEAN_MOTION_DDOT": 0.0001638651
    },
    {
        "OBJECT_NAME": "JILIN-1 GAOFEN 4A",
        "OBJECT_ID": "2022-046A",
        "EPOCH": "2025-12-06T21:53:38.627232",
        "MEAN_MOTION": 16.00762897,
        "ECCENTRICITY": 0.00070705,
        "INCLINATION": 97.485,
        "RA_OF_ASC_NODE": 89.4374,
        "ARG_OF_PERICENTER": 293.6448,
        "MEAN_ANOMALY": 66.4087,
        "EPHEMERIS_TYPE": 0,
        "CLASSIFICATION_TYPE": "U",
        "NORAD_CAT_ID": 52388,
        "ELEMENT_SET_NO": 999,
        "REV_AT_EPOCH": 20068,
        "BSTAR": 0.0011025582,
        "MEAN_MOTION_DOT": 0.0058341,
        "MEAN_MOTION_DDOT": 0.0001547502
    },
    {
        "OBJECT_NAME": "NUSAT-29 (EDITH CLARKE)",
        "OBJECT_ID": "2022-057AJ",
        "EPOCH": "2025-12-06T21:40:38.141472",
        "MEAN_MOTION": 16.05932957,
        "ECCENTRICITY": 0.0006153,
        "INCLINATION": 97.4845,
        "RA_OF_ASC_NODE": 124.5612,
        "ARG_OF_PERICENTER": 281.6543,
        "MEAN_ANOMALY": 78.4047,
        "EPHEMERIS_TYPE": 0,
        "CLASSIFICATION_TYPE": "U",
        "NORAD_CAT_ID": 52764,
        "ELEMENT_SET_NO": 999,
        "REV_AT_EPOCH": 19793,
        "BSTAR": 0.0013429014,
        "MEAN_MOTION_DOT": 0.00959156,
        "MEAN_MOTION_DDOT": 0.00049904371
    },
    {
        "OBJECT_NAME": "STARLINK-4511",
        "OBJECT_ID": "2022-101A",
        "EPOCH": "2025-12-07T01:50:52.442304",
        "MEAN_MOTION": 16.0491935,
        "ECCENTRICITY": 0.0008517,
        "INCLINATION": 53.1875,
        "RA_OF_ASC_NODE": 52.1503,
        "ARG_OF_PERICENTER": 343.187,
        "MEAN_ANOMALY": 16.888,
        "EPHEMERIS_TYPE": 0,
        "CLASSIFICATION_TYPE": "U",
        "NORAD_CAT_ID": 53527,
        "ELEMENT_SET_NO": 999,
        "REV_AT_EPOCH": 18327,
        "BSTAR": 0.0021872,
        "MEAN_MOTION_DOT": 0.01508893,
        "MEAN_MOTION_DDOT": 0.0014275
    },
    {
        "OBJECT_NAME": "STARLINK-5056",
        "OBJECT_ID": "2022-119AA",
        "EPOCH": "2025-12-07T00:00:02.000160",
        "MEAN_MOTION": 15.93297746,
        "ECCENTRICITY": 0.00054271,
        "INCLINATION": 53.2071,
        "RA_OF_ASC_NODE": 270.5442,
        "ARG_OF_PERICENTER": 118.1892,
        "MEAN_ANOMALY": 100.1278,
        "EPHEMERIS_TYPE": 0,
        "CLASSIFICATION_TYPE": "U",
        "NORAD_CAT_ID": 53910,
        "ELEMENT_SET_NO": 999,
        "REV_AT_EPOCH": 585,
        "BSTAR": 0.00084014908,
        "MEAN_MOTION_DOT": 0.00302631,
        "MEAN_MOTION_DDOT": 4.6207434e-05
    },
    {
        "OBJECT_NAME": "SKYKRAFT-1B",
        "OBJECT_ID": "2023-001BB",
        "EPOCH": "2025-12-06T20:22:46.877088",
        "MEAN_MOTION": 16.15825948,
        "ECCENTRICITY": 0.00044152,
        "INCLINATION": 97.3257,
        "RA_OF_ASC_NODE": 58.8381,
        "ARG_OF_PERICENTER": 294.2302,
        "MEAN_ANOMALY": 65.8523,
        "EPHEMERIS_TYPE": 0,
        "CLASSIFICATION_TYPE": "U",
        "NORAD_CAT_ID": 55058,
        "ELEMENT_SET_NO": 999,
        "REV_AT_EPOCH": 16386,
        "BSTAR": 0.0011986028,
        "MEAN_MOTION_DOT": 0.01587694,
        "MEAN_MOTION_DDOT": 0.0021721782
    }
]