STARLINK-2340           
1 47882U 21021Y   25341.00002315  .00938450  42327-3  19724-2 0  9996
2 47882  53.0239 227.5103 0007632 176.7442  49.6508 15.98337156  5906
STARLINK-2368           
1 47908U 21021BA  25341.00002315  .00548024  13185-3  14703-2 0  9991
2 47908  53.0455 311.1407 0009625  81.7252 256.8601 15.93804961  5982
TUBIN                   
1 48900U 21059X   25340.69616727  .00838377  37435-3  11149-2 0  9995
2 48900  97.6690 168.2010 0003699 277.4909  82.5952 16.06761960248358
ARTHUR-1                
1 48953U 21059CC  25340.91226783  .00300548  36933-4  83589-3 0  9992
2 48953  97.6560 172.4672 0002449 275.3688  84.7306 15.93741869248680
STARLINK-3663           
1 51976U 22025W   25340.53292903  .00685182  24040-3  98244-3 0  9999
2 51976  53.2006 355.5506 0004881  34.2770 325.8578 16.04882510208439
STARLINK-3722           
1 52089U 22029B   25340.94144111  .00923402  51485-3  85816-3 0  9995
2 52089  53.2108 114.7194 0004165 194.2341 165.8579 16.11696323207088
NUSAT-25 (MARIA TELKES) 
1 52171U 22033Q   25340.92710502  .00616654  16387-3  14619-2 0  9995
2 52171  97.2346  68.9535 0004458 287.6993  72.3796 15.96731673206561
JILIN-1 GAOFEN 4A       
1 52388U 22046A   25340.91225263  .00583410  15475-3  11026-2 0  9992
2 52388  97.4850  89.4374 0007070 293.6448  66.4087 16.00762897200689
NUSAT-29 (EDITH CLARKE) 
1 52764U 22057AJ  25340.90321923  .00959156  49904-3  13429-2 0  9998
2 52764  97.4845 124.5612 0006153 281.6543  78.4047 16.05932957197934
STARLINK-4511           
1 53527U 22101A   25341.07699586  .01508893  14275-2  21872-2 0  9990
2 53527  53.1875  52.1503 0008517 343.1870  16.8880 16.04919350183276
STARLINK-5056           
1 53910U 22119AA  25341.00002315  .00302631  46207-4  84015-3 0  9998
2 53910  53.2071 270.5442 0005427 118.1892 100.1278 15.93297746  5850
SKYKRAFT-1B             
1 55058U 23001BB  25340.84915367  .01587694  21722-2  11986-2 0  9999
2 55058  97.3257  58.8381 0004415 294.2302  65.8523 16.15825948163869
